[{"OBJECT_NAME":"STARLINK-30813","OBJECT_ID":"2023-170H","EPOCH":"2026-03-08T10:45:26.792064","MEAN_MOTION":15.26795732,"ECCENTRICITY":0.00021909,"INCLINATION":43.0016,"RA_OF_ASC_NODE":200.8924,"ARG_OF_PERICENTER":276.2944,"MEAN_ANOMALY":83.7658,"EPHEMERIS_TYPE":0,"CLASSIFICATION_TYPE":"U","NORAD_CAT_ID":58213,"ELEMENT_SET_NO":999,"REV_AT_EPOCH":13011,"BSTAR":-0.001014739,"MEAN_MOTION_DOT":-0.00027426,"MEAN_MOTION_DDOT":0},{"OBJECT_NAME":"FENGYUN 1C DEB","OBJECT_ID":"1999-025DCL","EPOCH":"2026-03-08T01:32:38.043744","MEAN_MOTION":14.80481308,"ECCENTRICITY":0.0218035,"INCLINATION":98.8149,"RA_OF_ASC_NODE":16.0796,"ARG_OF_PERICENTER":161.8742,"MEAN_ANOMALY":199.0399,"EPHEMERIS_TYPE":0,"CLASSIFICATION_TYPE":"U","NORAD_CAT_ID":33603,"ELEMENT_SET_NO":999,"REV_AT_EPOCH":119,"BSTAR":0.0001936534,"MEAN_MOTION_DOT":2.149e-5,"MEAN_MOTION_DDOT":0}]
